NORAD_CAT_ID,OBJECT_NAME,OBJECT_TYPE,EPOCH,MEAN_MOTION,ECCENTRICITY,INCLINATION,RA_OF_ASC_NODE,ARG_OF_PERICENTER,MEAN_ANOMALY,BSTAR,MEAN_MOTION_DOT,MEAN_MOTION_DDOT,TLE_LINE0,TLE_LINE1,TLE_LINE2,SEMIMAJOR_AXIS,PERIOD,APOGEE,PERIGEE,DECAYED
55754.0,STARLINK-5612,PAYLOAD,2024-05-07 05:26:51,14.98336994,0.0003085,69.9984,137.37,269.2655,90.8151,0.00014706,1.662e-05,0.0,0 STARLINK-5612,1 55754U 23028P   24128.22699011  .00001662  00000-0  14706-3 0  9994,2 55754  69.9984 137.3700 0003085 269.2655  90.8151 14.98336994 65466,6950.171,96.107,574.18,569.892,0.0
55754.0,STARLINK-5612,PAYLOAD,2024-05-07 10:15:15,14.98338507,0.0003092,69.9984,136.8649,269.1814,90.899,0.00015219,1.724e-05,0.0,0 STARLINK-5612,1 55754U 23028P   24128.42726848  .00001724  00000-0  15219-3 0  9994,2 55754  69.9984 136.8649 0003092 269.1814  90.8990 14.98338507 65492,6950.167,96.106,574.181,569.883,0.0
55754.0,STARLINK-5612,PAYLOAD,2024-05-07 18:15:56,14.98336198,0.0003097,69.9983,136.0235,269.3406,90.7398,0.00011066,1.228e-05,0.0,0 STARLINK-5612,1 55754U 23028P   24128.76106937  .00001228  00000-0  11066-3 0  9997,2 55754  69.9983 136.0235 0003097 269.3406  90.7398 14.98336198 65549,6950.174,96.107,574.191,569.886,0.0
55754.0,STARLINK-5612,PAYLOAD,2024-05-08 05:28:53,14.98332609,0.0003132,69.9982,134.8448,269.3949,90.6851,4.3725e-05,4.29e-06,0.0,0 STARLINK-5612,1 55754U 23028P   24129.22839190  .00000429  00000-0  43725-4 0  9993,2 55754  69.9982 134.8448 0003132 269.3949  90.6851 14.98332609 65616,6950.185,96.107,574.227,569.873,0.0
55754.0,STARLINK-5612,PAYLOAD,2024-05-08 10:17:17,14.983344,0.0003146,69.9982,134.3402,270.2019,89.8779,4.0352e-05,3.89e-06,0.0,0 STARLINK-5612,1 55754U 23028P   24129.42867007  .00000389  00000-0  40352-4 0  9991,2 55754  69.9982 134.3402 0003146 270.2019  89.8779 14.98334400 65648,6950.179,96.107,574.231,569.858,0.0
55754.0,STARLINK-5612,PAYLOAD,2024-05-09 10:19:17,14.98337052,0.0003164,69.9983,131.8152,270.3914,89.6883,4.1114e-05,3.98e-06,0.0,0 STARLINK-5612,1 55754U 23028P   24130.43006558  .00000398  00000-0  41114-4 0  9997,2 55754  69.9983 131.8152 0003164 270.3914  89.6883 14.98337052 65794,6950.171,96.107,574.235,569.837,0.0
55754.0,STARLINK-5612,PAYLOAD,2024-05-09 23:08:22,14.98330055,0.0003123,69.9984,130.4686,270.5283,89.5518,7.2873e-05,7.77e-06,0.0,0 STARLINK-5612,1 55754U 23028P   24130.96414943  .00000777  00000-0  72873-4 0  9993,2 55754  69.9984 130.4686 0003123 270.5283  89.5518 14.98330055 65877,6950.193,96.107,574.228,569.887,0.0
55754.0,STARLINK-5612,PAYLOAD,2024-05-10 03:56:46,14.98329832,0.0003125,69.9984,129.9636,270.4963,89.5838,6.8234e-05,7.21e-06,0.0,0 STARLINK-5612,1 55754U 23028P   24131.16443023  .00000721  00000-0  68234-4 0  9992,2 55754  69.9984 129.9636 0003125 270.4963  89.5838 14.98329832 65901,6950.193,96.107,574.23,569.886,0.0
55754.0,STARLINK-5612,PAYLOAD,2024-05-10 10:21:18,14.98332097,0.0003053,69.9986,129.2905,270.3239,89.757,8.0173e-05,8.64e-06,0.0,0 STARLINK-5612,1 55754U 23028P   24131.43146850  .00000864  00000-0  80173-4 0  9994,2 55754  69.9986 129.2905 0003053 270.3239  89.7570 14.98332097 65946,6950.186,96.107,574.173,569.93,0.0
55754.0,STARLINK-5612,PAYLOAD,2024-05-10 16:45:51,14.98331685,0.0003045,69.9987,128.6171,270.5191,89.5619,6.7733e-05,7.15e-06,0.0,0 STARLINK-5612,1 55754U 23028P   24131.69850923  .00000715  00000-0  67733-4 0  9997,2 55754  69.9987 128.6171 0003045 270.5191  89.5619 14.98331685 65983,6950.188,96.107,574.169,569.936,0.0
55754.0,STARLINK-5612,PAYLOAD,2024-05-11 03:58:47,14.98347062,0.0002786,69.9987,127.4387,268.1851,91.8989,-0.0001099,-1.405e-05,0.0,0 STARLINK-5612,1 55754U 23028P   24132.16582473 -.00001405  00000-0 -10990-3 0  9993,2 55754  69.9987 127.4387 0002786 268.1851  91.8989 14.98347062 66057,6950.14,96.106,573.941,570.069,0.0
55754.0,STARLINK-5612,PAYLOAD,2024-05-11 16:47:50,14.98368741,0.0002349,70.0008,126.0914,276.4593,83.6299,-0.00041,-4.986e-05,0.0,0 STARLINK-5612,1 55754U 23028P   24132.69989002 -.00004986  00000-0 -41000-3 0  9993,2 55754  70.0008 126.0914 0002349 276.4593  83.6299 14.98368741 66134,6950.073,96.105,573.571,570.306,0.0
55754.0,STARLINK-5612,PAYLOAD,2024-05-11 23:12:23,14.98338588,0.0002642,70.0015,125.418,269.8405,90.2452,0.00032411,3.777e-05,0.0,0 STARLINK-5612,1 55754U 23028P   24132.96694195  .00003777  00000-0  32411-3 0  9990,2 55754  70.0015 125.4180 0002642 269.8405  90.2452 14.98338588 66179,6950.166,96.106,573.868,570.195,0.0
55754.0,STARLINK-5612,PAYLOAD,2024-05-12 05:36:56,14.98332423,0.0003011,69.9998,124.7457,266.7611,93.3204,5.1124e-05,5.17e-06,0.0,0 STARLINK-5612,1 55754U 23028P   24133.23398367  .00000517  00000-0  51124-4 0  9995,2 55754  69.9998 124.7457 0003011 266.7611  93.3204 14.98332423 66217,6950.185,96.107,574.143,569.958,0.0
55754.0,STARLINK-5612,PAYLOAD,2024-05-12 08:49:12,14.98329661,0.0002747,69.9992,124.4101,263.4889,96.5958,5.8082e-05,6e-06,0.0,0 STARLINK-5612,1 55754U 23028P   24133.36750622  .00000600  00000-0  58082-4 0  9998,2 55754  69.9992 124.4101 0002747 263.4889  96.5958 14.98329661 66233,6950.194,96.107,573.968,570.15,0.0
55754.0,STARLINK-5612,PAYLOAD,2024-05-12 16:49:53,14.9832457,0.0002816,69.9994,123.5675,265.7492,94.3345,-2.8034e-05,-4.27e-06,0.0,0 STARLINK-5612,1 55754U 23028P   24133.70131170 -.00000427  00000-0 -28034-4 0  9990,2 55754  69.9994 123.5675 0002816 265.7492  94.3345 14.98324570 66288,6950.21,96.107,574.032,570.118,0.0
55754.0,STARLINK-5612,PAYLOAD,2024-05-13 08:51:14,14.98318583,0.0002964,69.9984,121.8838,267.692,92.39,-0.00013299,-1.679e-05,0.0,0 STARLINK-5612,1 55754U 23028P   24134.36892080 -.00001679  00000-0 -13299-3 0  9993,2 55754  69.9984 121.8838 0002964 267.6920  92.3900 14.98318583 66383,6950.228,96.108,574.153,570.033,0.0
55754.0,STARLINK-5612,PAYLOAD,2024-05-13 23:16:27,14.98318286,0.000307,69.9984,120.3688,266.5056,93.5752,6.7345e-06,-1.3e-07,0.0,0 STARLINK-5612,1 55754U 23028P   24134.96976011 -.00000013  00000-0  67345-5 0  9999,2 55754  69.9984 120.3688 0003070 266.5056  93.5752 14.98318286 66475,6950.229,96.108,574.228,569.96,0.0
55754.0,STARLINK-5612,PAYLOAD,2024-05-14 08:53:15,14.98320419,0.0003087,69.9985,119.3588,266.6989,93.3817,-8.1486e-06,-1.9e-06,0.0,0 STARLINK-5612,1 55754U 23028P   24135.37032222 -.00000190  00000-0 -81486-5 0  9991,2 55754  69.9985 119.3588 0003087 266.6989  93.3817 14.98320419 66535,6950.223,96.108,574.233,569.942,0.0
55754.0,STARLINK-5612,PAYLOAD,2024-05-15 08:55:16,14.98324138,0.0003108,69.9987,116.834,266.3389,93.7415,0.00021315,2.451e-05,0.0,0 STARLINK-5612,1 55754U 23028P   24136.37172294  .00002451  00000-0  21315-3 0  9999,2 55754  69.9987 116.8340 0003108 266.3389  93.7415 14.98324138 66686,6950.211,96.107,574.236,569.916,0.0
55754.0,STARLINK-5612,PAYLOAD,2024-05-16 04:08:52,14.98338446,0.0003129,69.9987,114.8141,266.062,94.0181,0.00026311,3.048e-05,0.0,0 STARLINK-5612,1 55754U 23028P   24137.17283411  .00003048  00000-0  26311-3 0  9996,2 55754  69.9987 114.8141 0003129 266.0620  94.0181 14.98338446 66806,6950.167,96.106,574.206,569.857,0.0
55754.0,STARLINK-5612,PAYLOAD,2024-05-16 07:21:08,14.98345436,0.0003108,69.9986,114.4773,266.3787,93.7017,0.00033843,3.949e-05,0.0,0 STARLINK-5612,1 55754U 23028P   24137.30634845  .00003949  00000-0  33843-3 0  9990,2 55754  69.9986 114.4773 0003108 266.3787  93.7017 14.98345436 66829,6950.145,96.106,574.17,569.85,0.0
55754.0,STARLINK-5612,PAYLOAD,2024-05-16 21:46:21,14.98343568,0.0002923,69.9992,112.9636,262.5378,97.5449,0.00021133,2.43e-05,0.0,0 STARLINK-5612,1 55754U 23028P   24137.90718832  .00002430  00000-0  21133-3 0  9998,2 55754  69.9992 112.9636 0002923 262.5378  97.5449 14.98343568 66910,6950.151,96.106,574.047,569.984,0.0
55754.0,STARLINK-5612,PAYLOAD,2024-05-17 04:10:53,14.98344075,0.0002919,69.9992,112.2898,264.5576,95.5251,0.00020318,2.333e-05,0.0,0 STARLINK-5612,1 55754U 23028P   24138.17422659  .00002333  00000-0  20318-3 0  9993,2 55754  69.9992 112.2898 0002919 264.5576  95.5251 14.98344075 66957,6950.149,96.106,574.043,569.986,0.0
55754.0,STARLINK-5612,PAYLOAD,2024-05-17 07:23:08,14.98349681,0.0002886,70.0003,111.953,266.5267,93.5562,0.00024406,2.822e-05,0.0,0 STARLINK-5612,1 55754U 23028P   24138.30774263  .00002822  00000-0  24406-3 0  9994,2 55754  70.0003 111.9530 0002886 266.5267  93.5562 14.98349681 66977,6950.132,96.106,574.003,569.991,0.0
55754.0,STARLINK-5612,PAYLOAD,2024-05-17 15:23:49,14.98342055,0.0002845,70.0005,111.1113,269.2046,90.8787,3.0097e-05,2.66e-06,0.0,0 STARLINK-5612,1 55754U 23028P   24138.64154382  .00000266  00000-0  30097-4 0  9999,2 55754  70.0005 111.1113 0002845 269.2046  90.8787 14.98342055 67022,6950.156,96.106,573.998,570.043,0.0
55754.0,STARLINK-5612,PAYLOAD,2024-05-18 04:12:54,14.98337601,0.0002631,69.9998,109.7663,260.1004,99.9858,-7.349e-05,-9.7e-06,0.0,0 STARLINK-5612,1 55754U 23028P   24139.17562849 -.00000970  00000-0 -73490-4 0  9997,2 55754  69.9998 109.7663 0002631 260.1004  99.9858 14.98337601 67109,6950.169,96.107,573.863,570.206,0.0
55754.0,STARLINK-5612,PAYLOAD,2024-05-18 07:25:10,14.9833637,0.0002551,70.0001,109.4302,259.3223,100.7649,-8.2586e-05,-1.078e-05,0.0,0 STARLINK-5612,1 55754U 23028P   24139.30914870 -.00001078  00000-0 -82586-4 0  9993,2 55754  70.0001 109.4302 0002551 259.3223 100.7649 14.98336370 67121,6950.173,96.107,573.811,570.265,0.0
55754.0,STARLINK-5612,PAYLOAD,2024-05-18 15:25:50,14.98335597,0.0002793,69.9995,108.5874,260.3386,99.7458,-0.00012481,-1.582e-05,0.0,0 STARLINK-5612,1 55754U 23028P   24139.64294810 -.00001582  00000-0 -12481-3 0  9991,2 55754  69.9995 108.5874 0002793 260.3386  99.7458 14.98335597 67174,6950.176,96.107,573.982,570.099,0.0
55754.0,STARLINK-5612,PAYLOAD,2024-05-19 04:14:55,14.98333852,0.0002826,69.9992,107.2379,266.3545,93.729,-4.4712e-05,-6.26e-06,0.0,0 STARLINK-5612,1 55754U 23028P   24140.17702685 -.00000626  00000-0 -44712-4 0  9996,2 55754  69.9992 107.2379 0002826 266.3545  93.7290 14.98333852 67256,6950.181,96.107,574.01,570.082,0.0
